{
  "type": "FeatureCollection",
  "features": [
    {
      "type": "Feature",
      "properties": {
        "norad_id": 31485,
        "name": "FENGYUN 1C DEB",
        "group": "fengyun-1c-debris",
        "lat": 16.53155114093695,
        "lon": 14.206927611755596,
        "alt_km": 1304.594439834501,
        "timestamp": "2025-12-25T19:00:39.633762+00:00",
        "meta_object_name": "FENGYUN 1C DEB",
        "meta_object_id": "1999-025BVZ",
        "meta_epoch": "2025-12-24T09:54:22.685184",
        "meta_mean_motion": 13.40097736,
        "meta_eccentricity": 0.04462437,
        "meta_inclination": 102.7177,
        "meta_ra_of_asc_node": 188.6326,
        "meta_arg_of_pericenter": 293.7591,
        "meta_mean_anomaly": 61.7335,
        "meta_ephemeris_type": 0,
        "meta_classification_type": "U",
        "meta_norad_cat_id": 31485,
        "meta_element_set_no": 999,
        "meta_rev_at_epoch": 90601,
        "meta_bstar": 0.0027619482,
        "meta_mean_motion_dot": 2.633e-05,
        "meta_mean_motion_ddot": 0,
        "tle_line1": "1 31485U 99025BVZ 25358.41276256  .00002633  00000+0  27619-2 0  9992",
        "tle_line2": "2 31485 102.7177 188.6326 0446243 293.7591  61.7335 13.40097736906012"
      },
      "geometry": {
        "type": "Point",
        "coordinates": [
          14.206927611755596,
          16.53155114093695
        ]
      }
    },
    {
      "type": "Feature",
      "properties": {
        "norad_id": 31487,
        "name": "FENGYUN 1C DEB",
        "group": "fengyun-1c-debris",
        "lat": 64.38023049608071,
        "lon": 20.13419116191218,
        "alt_km": 977.9705677068105,
        "timestamp": "2025-12-25T19:00:39.633773+00:00",
        "meta_object_name": "FENGYUN 1C DEB",
        "meta_object_id": "1999-025BWB",
        "meta_epoch": "2025-12-24T18:29:42.583200",
        "meta_mean_motion": 13.97784189,
        "meta_eccentricity": 0.01193328,
        "meta_inclination": 102.4136,
        "meta_ra_of_asc_node": 171.4168,
        "meta_arg_of_pericenter": 277.9548,
        "meta_mean_anomaly": 97.273,
        "meta_ephemeris_type": 0,
        "meta_classification_type": "U",
        "meta_norad_cat_id": 31487,
        "meta_element_set_no": 999,
        "meta_rev_at_epoch": 94580,
        "meta_bstar": 0.0017084916,
        "meta_mean_motion_dot": 2.495e-05,
        "meta_mean_motion_ddot": 0,
        "tle_line1": "1 31487U 99025BWB 25358.77063175  .00002495  00000+0  17085-2 0  9999",
        "tle_line2": "2 31487 102.4136 171.4168 0119332 277.9548  97.2730 13.97784189945802"
      },
      "geometry": {
        "type": "Point",
        "coordinates": [
          20.13419116191218,
          64.38023049608071
        ]
      }
    },
    {
      "type": "Feature",
      "properties": {
        "norad_id": 31491,
        "name": "FENGYUN 1C DEB",
        "group": "fengyun-1c-debris",
        "lat": 33.55616098446313,
        "lon": 95.24781229905714,
        "alt_km": 829.4355570121697,
        "timestamp": "2025-12-25T19:00:39.633783+00:00",
        "meta_object_name": "FENGYUN 1C DEB",
        "meta_object_id": "1999-025BWE",
        "meta_epoch": "2025-12-18T05:01:58.636416",
        "meta_mean_motion": 14.1729953,
        "meta_eccentricity": 0.00511133,
        "meta_inclination": 99.3072,
        "meta_ra_of_asc_node": 261.0688,
        "meta_arg_of_pericenter": 253.212,
        "meta_mean_anomaly": 106.3442,
        "meta_ephemeris_type": 0,
        "meta_classification_type": "U",
        "meta_norad_cat_id": 31491,
        "meta_element_set_no": 999,
        "meta_rev_at_epoch": 63805,
        "meta_bstar": 0.0014383052,
        "meta_mean_motion_dot": 2.896e-05,
        "meta_mean_motion_ddot": 0,
        "tle_line1": "1 31491U 99025BWE 25352.20970644  .00002896  00000+0  14383-2 0  9997",
        "tle_line2": "2 31491  99.3072 261.0688 0051113 253.2120 106.3442 14.17299530638050"
      },
      "geometry": {
        "type": "Point",
        "coordinates": [
          95.24781229905714,
          33.55616098446313
        ]
      }
    },
    {
      "type": "Feature",
      "properties": {
        "norad_id": 31492,
        "name": "FENGYUN 1C DEB",
        "group": "fengyun-1c-debris",
        "lat": 37.594287037471176,
        "lon": 160.04529656618948,
        "alt_km": 638.7183228146887,
        "timestamp": "2025-12-25T19:00:39.633793+00:00",
        "meta_object_name": "FENGYUN 1C DEB",
        "meta_object_id": "1999-025BWF",
        "meta_epoch": "2025-12-22T22:16:59.719872",
        "meta_mean_motion": 14.71117312,
        "meta_eccentricity": 0.00645708,
        "meta_inclination": 98.856,
        "meta_ra_of_asc_node": 163.8283,
        "meta_arg_of_pericenter": 336.971,
        "meta_mean_anomaly": 22.8602,
        "meta_ephemeris_type": 0,
        "meta_classification_type": "U",
        "meta_norad_cat_id": 31492,
        "meta_element_set_no": 999,
        "meta_rev_at_epoch": 96656,
        "meta_bstar": 0.0033267446,
        "meta_mean_motion_dot": 0.00021138,
        "meta_mean_motion_ddot": 0,
        "tle_line1": "1 31492U 99025BWF 25356.92846898  .00021138  00000+0  33267-2 0  9996",
        "tle_line2": "2 31492  98.8560 163.8283 0064570 336.9710  22.8602 14.71117312966569"
      },
      "geometry": {
        "type": "Point",
        "coordinates": [
          160.04529656618948,
          37.594287037471176
        ]
      }
    },
    {
      "type": "Feature",
      "properties": {
        "norad_id": 31493,
        "name": "FENGYUN 1C DEB",
        "group": "fengyun-1c-debris",
        "lat": -65.49394927595152,
        "lon": -29.97818343332486,
        "alt_km": 1000.2651580082966,
        "timestamp": "2025-12-25T19:00:39.633805+00:00",
        "meta_object_name": "FENGYUN 1C DEB",
        "meta_object_id": "1999-025BWG",
        "meta_epoch": "2025-12-22T17:13:02.407872",
        "meta_mean_motion": 13.92988656,
        "meta_eccentricity": 0.01172987,
        "meta_inclination": 100.137,
        "meta_ra_of_asc_node": 303.5504,
        "meta_arg_of_pericenter": 149.0883,
        "meta_mean_anomaly": 211.7248,
        "meta_ephemeris_type": 0,
        "meta_classification_type": "U",
        "meta_norad_cat_id": 31493,
        "meta_element_set_no": 999,
        "meta_rev_at_epoch": 60005,
        "meta_bstar": 0.00084589996,
        "meta_mean_motion_dot": 1.111e-05,
        "meta_mean_motion_ddot": 0,
        "tle_line1": "1 31493U 99025BWG 25356.71738898  .00001111  00000+0  84590-3 0  9999",
        "tle_line2": "2 31493 100.1370 303.5504 0117298 149.0883 211.7248 13.92988656600058"
      },
      "geometry": {
        "type": "Point",
        "coordinates": [
          -29.97818343332486,
          -65.49394927595152
        ]
      }
    },
    {
      "type": "Feature",
      "properties": {
        "norad_id": 31495,
        "name": "FENGYUN 1C DEB",
        "group": "fengyun-1c-debris",
        "lat": 19.90134440679179,
        "lon": -129.7650931167586,
        "alt_km": 803.0052016939744,
        "timestamp": "2025-12-25T19:00:39.633815+00:00",
        "meta_object_name": "FENGYUN 1C DEB",
        "meta_object_id": "1999-025BWJ",
        "meta_epoch": "2025-12-20T09:32:47.149152",
        "meta_mean_motion": 14.29252624,
        "meta_eccentricity": 0.00255899,
        "meta_inclination": 99.12,
        "meta_ra_of_asc_node": 227.9275,
        "meta_arg_of_pericenter": 154.7696,
        "meta_mean_anomaly": 205.474,
        "meta_ephemeris_type": 0,
        "meta_classification_type": "U",
        "meta_norad_cat_id": 31495,
        "meta_element_set_no": 999,
        "meta_rev_at_epoch": 63500,
        "meta_bstar": 0.00086082116,
        "meta_mean_motion_dot": 2.149e-05,
        "meta_mean_motion_ddot": 0,
        "tle_line1": "1 31495U 99025BWJ 25354.39776793  .00002149  00000+0  86082-3 0  9999",
        "tle_line2": "2 31495  99.1200 227.9275 0025589 154.7696 205.4740 14.29252624635009"
      },
      "geometry": {
        "type": "Point",
        "coordinates": [
          -129.7650931167586,
          19.90134440679179
        ]
      }
    },
    {
      "type": "Feature",
      "properties": {
        "norad_id": 31497,
        "name": "FENGYUN 1C DEB",
        "group": "fengyun-1c-debris",
        "lat": -75.07253118785715,
        "lon": 16.576173214981328,
        "alt_km": 656.847207779294,
        "timestamp": "2025-12-25T19:00:39.633825+00:00",
        "meta_object_name": "FENGYUN 1C DEB",
        "meta_object_id": "1999-025BWL",
        "meta_epoch": "2025-12-20T04:29:02.353920",
        "meta_mean_motion": 14.39239205,
        "meta_eccentricity": 0.01673435,
        "meta_inclination": 98.371,
        "meta_ra_of_asc_node": 337.5747,
        "meta_arg_of_pericenter": 320.7302,
        "meta_mean_anomaly": 96.6636,
        "meta_ephemeris_type": 0,
        "meta_classification_type": "U",
        "meta_norad_cat_id": 31497,
        "meta_element_set_no": 999,
        "meta_rev_at_epoch": 97662,
        "meta_bstar": 0.00018663983,
        "meta_mean_motion_dot": 6.31e-06,
        "meta_mean_motion_ddot": 0,
        "tle_line1": "1 31497U 99025BWL 25354.18683280  .00000631  00000+0  18664-3 0  9991",
        "tle_line2": "2 31497  98.3710 337.5747 0167343 320.7302  96.6636 14.39239205976625"
      },
      "geometry": {
        "type": "Point",
        "coordinates": [
          16.576173214981328,
          -75.07253118785715
        ]
      }
    }
  ]
}